NORAD_CAT_ID,OBJECT_NAME,OBJECT_TYPE,EPOCH,MEAN_MOTION,ECCENTRICITY,INCLINATION,RA_OF_ASC_NODE,ARG_OF_PERICENTER,MEAN_ANOMALY,BSTAR,MEAN_MOTION_DOT,MEAN_MOTION_DDOT,TLE_LINE0,TLE_LINE1,TLE_LINE2,SEMIMAJOR_AXIS,PERIOD,APOGEE,PERIGEE,DECAYED
55649.0,STARLINK-5469,PAYLOAD,2023-04-14 12:58:57,15.69920069,0.0003393,70.0004,353.1332,270.4987,89.582,2.0679e-06,3.6e-07,0.0,0 STARLINK-5469,1 55649U 23021X   23104.54094183  .00000036  00000-0  20679-5 0  9999,2 55649  70.0004 353.1332 0003393 270.4987  89.5820 15.69920069  9601,6737.263,91.724,361.414,356.842,0.0
55649.0,STARLINK-5469,PAYLOAD,2023-04-15 02:44:43,15.69907077,0.0003318,70.0003,351.5213,266.3777,93.7039,-3.6696e-05,-4.619e-05,0.0,0 STARLINK-5469,1 55649U 23021X   23105.11439389 -.00004619  00000-0 -36696-4 0  9992,2 55649  70.0003 351.5213 0003318 266.3777  93.7039 15.69907077  9386,6737.3,91.725,361.4,356.929,0.0
55649.0,STARLINK-5469,PAYLOAD,2023-04-15 19:33:59,15.69919737,0.0003681,70.0008,349.5501,270.5107,89.5667,-5.6004e-06,-8.86e-06,0.0,0 STARLINK-5469,1 55649U 23021X   23105.81527538 -.00000886  00000-0 -56004-5 0  9991,2 55649  70.0008 349.5501 0003681 270.5107  89.5667 15.69919737  9808,6737.264,91.724,361.609,356.649,0.0
55649.0,STARLINK-5469,PAYLOAD,2023-04-16 01:41:01,15.69895196,0.0003168,69.9998,348.8349,261.7226,98.361,0.00017193,0.00020485,0.0,0 STARLINK-5469,1 55649U 23021X   23106.07015661  .00020485  00000-0  17193-3 0  9998,2 55649  69.9998 348.8349 0003168 261.7226  98.3610 15.69895196  9841,6737.334,91.726,361.333,357.064,0.0
55649.0,STARLINK-5469,PAYLOAD,2023-04-16 18:30:16,15.69921822,0.0003498,70.0006,346.8644,264.22,95.8597,8.5755e-06,8.18e-06,0.0,0 STARLINK-5469,1 55649U 23021X   23106.77102754  .00000818  00000-0  85755-5 0  9994,2 55649  70.0006 346.8644 0003498 264.2200  95.8597 15.69921822  9950,6737.258,91.724,361.479,356.766,0.0
55649.0,STARLINK-5469,PAYLOAD,2023-04-17 02:09:01,15.69936178,0.000396,69.9997,345.9673,267.4316,92.6427,1.5977e-05,1.71e-05,0.0,0 STARLINK-5469,1 55649U 23021X   23107.08960266  .00001710  00000-0  15977-4 0  9999,2 55649  69.9997 345.9673 0003960 267.4316  92.6427 15.69936178  9693,6737.217,91.723,361.75,356.414,0.0
55649.0,STARLINK-5469,PAYLOAD,2023-04-17 18:58:18,15.69925117,0.000381,70.0006,343.9968,271.1303,88.9456,1.7609e-05,1.905e-05,0.0,0 STARLINK-5469,1 55649U 23021X   23107.79049297  .00001905  00000-0  17609-4 0  9999,2 55649  70.0006 343.9968 0003810 271.1303  88.9456 15.69925117  9808,6737.248,91.724,361.68,356.546,0.0
55649.0,STARLINK-5469,PAYLOAD,2023-04-18 01:05:18,15.69928715,0.0003547,70.0001,343.2795,269.1433,90.9357,2.6731e-05,3.003e-05,0.0,0 STARLINK-5469,1 55649U 23021X   23108.04535854  .00003003  00000-0  26731-4 0  9994,2 55649  70.0001 343.2795 0003547 269.1433  90.9357 15.69928715 10152,6737.238,91.724,361.493,356.713,0.0
55649.0,STARLINK-5469,PAYLOAD,2023-04-18 17:54:35,15.69927567,0.0003189,70.0002,341.3103,264.3573,95.7259,4.7043e-06,3.53e-06,0.0,0 STARLINK-5469,1 55649U 23021X   23108.74624450  .00000353  00000-0  47043-5 0  9997,2 55649  70.0002 341.3103 0003189 264.3573  95.7259 15.69927567 10269,6737.241,91.724,361.255,356.958,0.0
55649.0,STARLINK-5469,PAYLOAD,2023-04-19 01:33:20,15.69934477,0.0003086,69.9993,340.4138,271.0424,89.0418,1.9149e-05,2.091e-05,0.0,0 STARLINK-5469,1 55649U 23021X   23109.06482422  .00002091  00000-0  19149-4 0  9990,2 55649  69.9993 340.4138 0003086 271.0424  89.0418 15.69934477 10002,6737.221,91.724,361.166,357.007,0.0
55649.0,STARLINK-5469,PAYLOAD,2023-04-19 16:50:52,15.69922903,0.0003515,69.9995,338.622,269.001,91.0783,6.1526e-06,5.27e-06,0.0,0 STARLINK-5469,1 55649U 23021X   23109.70199630  .00000527  00000-0  61526-5 0  9996,2 55649  69.9995 338.6220 0003515 269.0010  91.0783 15.69922903 10414,6737.255,91.724,361.488,356.751,0.0
55649.0,STARLINK-5469,PAYLOAD,2023-04-20 02:01:22,15.69934799,0.0003186,69.9995,337.5476,256.9044,103.1796,2.1016e-05,2.316e-05,0.0,0 STARLINK-5469,1 55649U 23021X   23110.08429013  .00002316  00000-0  21016-4 0  9997,2 55649  69.9995 337.5476 0003186 256.9044 103.1796 15.69934799 10472,6737.221,91.724,361.232,356.939,0.0
55649.0,STARLINK-5469,PAYLOAD,2023-04-20 15:47:09,15.69914002,0.0003463,69.9984,335.9329,260.3825,99.6979,-2.349e-05,-3.035e-05,0.0,0 STARLINK-5469,1 55649U 23021X   23110.65775142 -.00003035  00000-0 -23490-4 0  9996,2 55649  69.9984 335.9329 0003463 260.3825  99.6979 15.69914002 10560,6737.28,91.725,361.478,356.812,0.0
55649.0,STARLINK-5469,PAYLOAD,2023-04-21 00:57:39,15.69932971,0.0003271,69.9983,334.8589,263.3151,96.7673,1.8561e-05,2.02e-05,0.0,0 STARLINK-5469,1 55649U 23021X   23111.04004401  .00002020  00000-0  18561-4 0  9997,2 55649  69.9983 334.8589 0003271 263.3151  96.7673 15.69932971 10314,6737.226,91.724,361.295,356.887,0.0
55649.0,STARLINK-5469,PAYLOAD,2023-04-21 08:36:25,15.69930051,0.0003527,69.9997,333.9651,268.7895,91.2896,3.0111e-05,3.41e-05,0.0,0 STARLINK-5469,1 55649U 23021X   23111.35862777  .00003410  00000-0  30111-4 0  9998,2 55649  69.9997 333.9651 0003527 268.7895  91.2896 15.69930051 10670,6737.234,91.724,361.475,356.723,0.0
55649.0,STARLINK-5469,PAYLOAD,2023-04-21 20:50:26,15.69932961,0.0003191,69.9995,332.5323,258.6212,101.4625,1.5842e-05,1.693e-05,0.0,0 STARLINK-5469,1 55649U 23021X   23111.86835851  .00001693  00000-0  15842-4 0  9992,2 55649  69.9995 332.5323 0003191 258.6212 101.4625 15.69932961 10752,6737.226,91.724,361.241,356.941,0.0
55649.0,STARLINK-5469,PAYLOAD,2023-04-22 01:25:41,15.6993382,0.000364,69.9982,331.9944,262.4628,97.6154,7.4048e-06,6.78e-06,0.0,0 STARLINK-5469,1 55649U 23021X   23112.05950758  .00000678  00000-0  74048-5 0  9994,2 55649  69.9982 331.9944 0003640 262.4628  97.6154 15.69933820 10470,6737.223,91.724,361.541,356.636,0.0
55649.0,STARLINK-5469,PAYLOAD,2023-04-22 21:18:28,15.6992157,0.0003571,69.9988,329.6643,263.6986,96.3803,4.447e-06,3.22e-06,0.0,0 STARLINK-5469,1 55649U 23021X   23112.88783260  .00000322  00000-0  44470-5 0  9999,2 55649  69.9988 329.6643 0003571 263.6986  96.3803 15.69921570 10600,6737.258,91.724,361.529,356.718,0.0
55649.0,STARLINK-5469,PAYLOAD,2023-04-23 14:07:44,15.69925531,0.0003722,69.9966,327.6935,260.8286,99.2488,1.344e-05,1.403e-05,0.0,0 STARLINK-5469,1 55649U 23021X   23113.58871515  .00001403  00000-0  13440-4 0  9991,2 55649  69.9966 327.6935 0003722 260.8286  99.2488 15.69925531 11027,6737.247,91.724,361.62,356.604,0.0
55649.0,STARLINK-5469,PAYLOAD,2023-04-24 13:04:00,15.6994948,0.0003521,69.9985,325.0065,261.0894,98.9903,6.0737e-05,7.104e-05,0.0,0 STARLINK-5469,1 55649U 23021X   23114.54445008  .00007104  00000-0  60737-4 0  9997,2 55649  69.9985 325.0065 0003521 261.0894  98.9903 15.69949480 10867,6737.179,91.723,361.416,356.671,0.0
55649.0,STARLINK-5469,PAYLOAD,2023-04-24 14:35:45,15.69949222,0.0003436,69.9992,324.8275,259.3394,100.7415,7.6631e-05,9.021e-05,0.0,0 STARLINK-5469,1 55649U 23021X   23114.60816915  .00009021  00000-0  76631-4 0  9993,2 55649  69.9992 324.8275 0003436 259.3394 100.7415 15.69949222 11185,6737.179,91.723,361.359,356.729,0.0
55649.0,STARLINK-5469,PAYLOAD,2023-04-25 06:00:00,15.69928505,0.0003612,69.9999,323.0226,273.6779,112.6783,0.00024928,0.00029875,0.0,0 STARLINK-5469,1 55649U 23021X   23115.25001157  .00029875  00000-0  24928-3 0  9999,2 55649  69.9999 323.0226 0003612 273.6779 112.6783 15.69928505 10989,6737.239,91.724,361.537,356.67,0.0
55649.0,STARLINK-5469,PAYLOAD,2023-04-25 13:32:06,15.69878767,0.0003803,69.9993,322.1391,270.024,90.0519,-8.4329e-05,-0.00010322,0.0,0 STARLINK-5469,1 55649U 23021X   23115.56396097 -.00010322  00000-0 -84329-4 0  9994,2 55649  69.9993 322.1391 0003803 270.0240  90.0519 15.69878767 11332,6737.381,91.727,361.808,356.684,0.0
55649.0,STARLINK-5469,PAYLOAD,2023-04-26 15:31:59,15.69828455,0.000447,70.0036,319.0983,278.9398,81.1291,-4.8138e-05,-5.976e-05,0.0,0 STARLINK-5469,1 55649U 23021X   23116.64721952 -.00005976  00000-0 -48138-4 0  9993,2 55649  70.0036 319.0983 0004470 278.9398  81.1291 15.69828455 11503,6737.525,91.73,362.401,356.378,0.0
55649.0,STARLINK-5469,PAYLOAD,2023-04-26 23:10:26,15.70329378,0.0003386,70.0024,318.2014,231.5577,128.5315,0.0010835,0.00134414,0.0,0 STARLINK-5469,1 55649U 23021X   23116.96558141  .00134414  00000-0  10835-2 0  9995,2 55649  70.0024 318.2014 0003386 231.5577 128.5315 15.70329378 11241,6736.092,91.701,360.238,355.676,0.0
55649.0,STARLINK-5469,PAYLOAD,2023-04-27 20:34:20,15.70798387,0.0006483,70.0022,315.691,269.4533,90.592,0.001461,0.00186171,0.0,0 STARLINK-5469,1 55649U 23021X   23117.85718724  .00186171  00000-0  14610-2 0  9991,2 55649  70.0022 315.6910 0006483 269.4533  90.5920 15.70798387 11383,6734.751,91.673,360.982,352.25,0.0
55649.0,STARLINK-5469,PAYLOAD,2023-04-28 08:00:01,15.69863092,0.0003735,70.0004,314.3533,274.1984,253.0947,0.00078816,0.00095406,0.0,0 STARLINK-5469,1 55649U 23021X   23118.33334491  .00095406  00000-0  78816-3 0  9999,2 55649  70.0004 314.3533 0003735 274.1984 253.0947 15.69863092 11468,6737.426,91.728,361.807,356.774,0.0
55649.0,STARLINK-5469,PAYLOAD,2023-04-28 11:52:34,15.70081175,0.0004037,69.9992,313.8996,255.0584,105.0165,-0.00050973,-0.00061465,0.0,0 STARLINK-5469,1 55649U 23021X   23118.49484878 -.00061465  00000-0 -50973-3 0  9995,2 55649  69.9992 313.8996 0004037 255.0584 105.0165 15.70081175 11484,6736.802,91.715,361.386,355.947,0.0
55649.0,STARLINK-5469,PAYLOAD,2023-04-28 19:31:05,15.70333715,0.0005236,70.0025,313.0059,250.2205,109.8427,-2.3705e-05,-3.115e-05,0.0,0 STARLINK-5469,1 55649U 23021X   23118.81325762 -.00003115  00000-0 -23705-4 0  9999,2 55649  70.0025 313.0059 0005236 250.2205 109.8427 15.70333715 11534,6736.08,91.7,361.472,354.417,0.0
55649.0,STARLINK-5469,PAYLOAD,2023-04-29 13:52:26,15.69945786,0.0003788,69.9989,310.8547,275.799,84.2774,4.3442e-05,5.019e-05,0.0,0 STARLINK-5469,1 55649U 23021X   23119.57807977  .00005019  00000-0  43442-4 0  9999,2 55649  69.9989 310.8547 0003788 275.7990  84.2774 15.69945786 11659,6737.189,91.723,361.606,356.502,0.0
